{"type": "FeatureCollection", "features": [ {"type": "Feature", "properties": {"norad_id": 34031, "name": "COSMOS 2251 DEB", "group": "cosmos-2251-debris", "lat": -66.9827363869234, "lon": 81.34093134934028, "alt_km": 688.9828045853619, "timestamp": "2025-12-18T23:35:49.456645+00:00", "meta": {"OBJECT_NAME": "COSMOS 2251 DEB", "OBJECT_ID": "1993-036HS", "EPOCH": "2025-12-18T09:16:15.171744", "MEAN_MOTION": 14.59750753, "ECCENTRICITY": 0.00229616, "INCLINATION": 74.0127, "RA_OF_ASC_NODE": 124.9228, "ARG_OF_PERICENTER": 244.9645, "MEAN_ANOMALY": 146.0446, "EPHEMERIS_TYPE": 0, "CLASSIFICATION_TYPE": "U", "NORAD_CAT_ID": 34031, "ELEMENT_SET_NO": 999, "REV_AT_EPOCH": 88648, "BSTAR": 0.0010448723, "MEAN_MOTION_DOT": 4.979e-05, "MEAN_MOTION_DDOT": 0}, "tle": {"line1": "1 34031U 93036HS  25352.38628671  .00004979  00000+0  10449-2 0  9998", "line2": "2 34031  74.0127 124.9228 0022961 244.9645 146.0446 14.59750753886481"}}, "geometry": {"type": "Point", "coordinates": [81.34093134934028, -66.9827363869234]}}, {"type": "Feature", "properties": {"norad_id": 34035, "name": "COSMOS 2251 DEB", "group": "cosmos-2251-debris", "lat": -73.21135806461159, "lon": -93.85875827586051, "alt_km": 711.0110411169999, "timestamp": "2025-12-18T23:35:49.456655+00:00", "meta": {"OBJECT_NAME": "COSMOS 2251 DEB", "OBJECT_ID": "1993-036HW", "EPOCH": "2025-12-18T05:52:51.906144", "MEAN_MOTION": 14.52010653, "ECCENTRICITY": 0.0045054, "INCLINATION": 74.0652, "RA_OF_ASC_NODE": 338.7856, "ARG_OF_PERICENTER": 339.1544, "MEAN_ANOMALY": 39.6359, "EPHEMERIS_TYPE": 0, "CLASSIFICATION_TYPE": "U", "NORAD_CAT_ID": 34035, "ELEMENT_SET_NO": 999, "REV_AT_EPOCH": 88046, "BSTAR": 0.0014074339, "MEAN_MOTION_DOT": 5.739e-05, "MEAN_MOTION_DDOT": 0}, "tle": {"line1": "1 34035U 93036HW  25352.24504521  .00005739  00000+0  14074-2 0  9997", "line2": "2 34035  74.0652 338.7856 0045054 339.1544  39.6359 14.52010653880466"}}, "geometry": {"type": "Point", "coordinates": [-93.85875827586051, -73.21135806461159]}}, {"type": "Feature", "properties": {"norad_id": 34036, "name": "COSMOS 2251 DEB", "group": "cosmos-2251-debris", "lat": 61.91433258351995, "lon": 169.14154464015087, "alt_km": 576.1050776952761, "timestamp": "2025-12-18T23:35:49.456665+00:00", "meta": {"OBJECT_NAME": "COSMOS 2251 DEB", "OBJECT_ID": "1993-036HX", "EPOCH": "2025-12-18T13:39:59.580576", "MEAN_MOTION": 14.95421329, "ECCENTRICITY": 0.00110737, "INCLINATION": 74.0196, "RA_OF_ASC_NODE": 137.4958, "ARG_OF_PERICENTER": 168.8965, "MEAN_ANOMALY": 191.2466, "EPHEMERIS_TYPE": 0, "CLASSIFICATION_TYPE": "U", "NORAD_CAT_ID": 34036, "ELEMENT_SET_NO": 999, "REV_AT_EPOCH": 88657, "BSTAR": 0.0031797854, "MEAN_MOTION_DOT": 0.00035336, "MEAN_MOTION_DDOT": 0}, "tle": {"line1": "1 34036U 93036HX  25352.56943959  .00035336  00000+0  31798-2 0  9993", "line2": "2 34036  74.0196 137.4958 0011073 168.8965 191.2466 14.95421329886570"}}, "geometry": {"type": "Point", "coordinates": [169.14154464015087, 61.91433258351995]}}, {"type": "Feature", "properties": {"norad_id": 34037, "name": "COSMOS 2251 DEB", "group": "cosmos-2251-debris", "lat": -26.07925625899568, "lon": -132.9385284604115, "alt_km": 799.8339252798496, "timestamp": "2025-12-18T23:35:49.456676+00:00", "meta": {"OBJECT_NAME": "COSMOS 2251 DEB", "OBJECT_ID": "1993-036HY", "EPOCH": "2025-12-18T14:16:20.695008", "MEAN_MOTION": 14.34679641, "ECCENTRICITY": 0.00518383, "INCLINATION": 74.0513, "RA_OF_ASC_NODE": 39.7266, "ARG_OF_PERICENTER": 87.9128, "MEAN_ANOMALY": 272.7959, "EPHEMERIS_TYPE": 0, "CLASSIFICATION_TYPE": "U", "NORAD_CAT_ID": 34037, "ELEMENT_SET_NO": 999, "REV_AT_EPOCH": 87801, "BSTAR": 0.00033094134, "MEAN_MOTION_DOT": 9.25e-06, "MEAN_MOTION_DDOT": 0}, "tle": {"line1": "1 34037U 93036HY  25352.59468397  .00000925  00000+0  33094-3 0  9993", "line2": "2 34037  74.0513  39.7266 0051838  87.9128 272.7959 14.34679641878012"}}, "geometry": {"type": "Point", "coordinates": [-132.9385284604115, -26.07925625899568]}}, {"type": "Feature", "properties": {"norad_id": 34040, "name": "COSMOS 2251 DEB", "group": "cosmos-2251-debris", "lat": 47.75902207724103, "lon": 74.02199704190228, "alt_km": 810.8705796143104, "timestamp": "2025-12-18T23:35:49.456686+00:00", "meta": {"OBJECT_NAME": "COSMOS 2251 DEB", "OBJECT_ID": "1993-036JB", "EPOCH": "2025-12-18T14:35:39.891840", "MEAN_MOTION": 13.68382997, "ECCENTRICITY": 0.03432162, "INCLINATION": 73.9558, "RA_OF_ASC_NODE": 56.1664, "ARG_OF_PERICENTER": 8.341, "MEAN_ANOMALY": 352.321, "EPHEMERIS_TYPE": 0, "CLASSIFICATION_TYPE": "U", "NORAD_CAT_ID": 34040, "ELEMENT_SET_NO": 999, "REV_AT_EPOCH": 83680, "BSTAR": 0.00048606868, "MEAN_MOTION_DOT": 6.04e-06, "MEAN_MOTION_DDOT": 0}, "tle": {"line1": "1 34040U 93036JB  25352.60810060  .00000604  00000+0  48607-3 0  9997", "line2": "2 34040  73.9558  56.1664 0343216   8.3410 352.3210 13.68382997836800"}}, "geometry": {"type": "Point", "coordinates": [74.02199704190228, 47.75902207724103]}}, {"type": "Feature", "properties": {"norad_id": 34045, "name": "COSMOS 2251 DEB", "group": "cosmos-2251-debris", "lat": -54.225630474635665, "lon": 142.8099576698061, "alt_km": 799.7220040055927, "timestamp": "2025-12-18T23:35:49.456696+00:00", "meta": {"OBJECT_NAME": "COSMOS 2251 DEB", "OBJECT_ID": "1993-036JG", "EPOCH": "2025-12-18T07:59:54.654144", "MEAN_MOTION": 14.34071999, "ECCENTRICITY": 0.00258947, "INCLINATION": 74.0394, "RA_OF_ASC_NODE": 300.5966, "ARG_OF_PERICENTER": 22.4949, "MEAN_ANOMALY": 101.0972, "EPHEMERIS_TYPE": 0, "CLASSIFICATION_TYPE": "U", "NORAD_CAT_ID": 34045, "ELEMENT_SET_NO": 999, "REV_AT_EPOCH": 88113, "BSTAR": 7.8777433e-05, "MEAN_MOTION_DOT": 1.95e-06, "MEAN_MOTION_DDOT": 0}, "tle": {"line1": "1 34045U 93036JG  25352.33327146  .00000195  00000+0  78777-4 0  9997", "line2": "2 34045  74.0394 300.5966 0025894  22.4949 101.0972 14.34071999881130"}}, "geometry": {"type": "Point", "coordinates": [142.8099576698061, -54.225630474635665]}}, {"type": "Feature", "properties": {"norad_id": 34046, "name": "COSMOS 2251 DEB", "group": "cosmos-2251-debris", "lat": 32.07896774020191, "lon": 168.4821571652905, "alt_km": 712.9151938363921, "timestamp": "2025-12-18T23:35:49.456707+00:00", "meta": {"OBJECT_NAME": "COSMOS 2251 DEB", "OBJECT_ID": "1993-036JH", "EPOCH": "2025-12-18T01:38:36.652128", "MEAN_MOTION": 14.46515039, "ECCENTRICITY": 0.00744287, "INCLINATION": 74.0391, "RA_OF_ASC_NODE": 0.5232, "ARG_OF_PERICENTER": 82.3438, "MEAN_ANOMALY": 341.7575, "EPHEMERIS_TYPE": 0, "CLASSIFICATION_TYPE": "U", "NORAD_CAT_ID": 34046, "ELEMENT_SET_NO": 999, "REV_AT_EPOCH": 87903, "BSTAR": 0.00091063799, "MEAN_MOTION_DOT": 3.368e-05, "MEAN_MOTION_DDOT": 0}, "tle": {"line1": "1 34046U 93036JH  25352.06847977  .00003368  00000+0  91064-3 0  9995", "line2": "2 34046  74.0391   0.5232 0074428  82.3438 341.7575 14.46515039879035"}}, "geometry": {"type": "Point", "coordinates": [168.4821571652905, 32.07896774020191]}}, {"type": "Feature", "properties": {"norad_id": 34050, "name": "COSMOS 2251 DEB", "group": "cosmos-2251-debris", "lat": -29.415679833133712, "lon": -9.91274814138115, "alt_km": 916.4526363330715, "timestamp": "2025-12-18T23:35:49.456719+00:00", "meta": {"OBJECT_NAME": "COSMOS 2251 DEB", "OBJECT_ID": "1993-036JM", "EPOCH": "2025-12-18T10:33:02.868192", "MEAN_MOTION": 13.96193372, "ECCENTRICITY": 0.02146205, "INCLINATION": 74.0883, "RA_OF_ASC_NODE": 0.2748, "ARG_OF_PERICENTER": 63.1234, "MEAN_ANOMALY": 57.5184, "EPHEMERIS_TYPE": 0, "CLASSIFICATION_TYPE": "U", "NORAD_CAT_ID": 34050, "ELEMENT_SET_NO": 999, "REV_AT_EPOCH": 85511, "BSTAR": 0.00055337112, "MEAN_MOTION_DOT": 9.01e-06, "MEAN_MOTION_DDOT": 0}, "tle": {"line1": "1 34050U 93036JM  25352.43961653  .00000901  00000+0  55337-3 0  9992", "line2": "2 34050  74.0883   0.2748 0214620  63.1234  57.5184 13.96193372855113"}}, "geometry": {"type": "Point", "coordinates": [-9.91274814138115, -29.415679833133712]}}, {"type": "Feature", "properties": {"norad_id": 34053, "name": "COSMOS 2251 DEB", "group": "cosmos-2251-debris", "lat": -33.58226665794095, "lon": -138.98587914551155, "alt_km": 890.3535332646525, "timestamp": "2025-12-18T23:35:49.456729+00:00", "meta": {"OBJECT_NAME": "COSMOS 2251 DEB", "OBJECT_ID": "1993-036JQ", "EPOCH": "2025-12-18T14:51:43.880832", "MEAN_MOTION": 13.49170319, "ECCENTRICITY": 0.04225587, "INCLINATION": 73.8435, "RA_OF_ASC_NODE": 232.6971, "ARG_OF_PERICENTER": 20.2779, "MEAN_ANOMALY": 341.4552, "EPHEMERIS_TYPE": 0, "CLASSIFICATION_TYPE": "U", "NORAD_CAT_ID": 34053, "ELEMENT_SET_NO": 999, "REV_AT_EPOCH": 82763, "BSTAR": 0.00056790785, "MEAN_MOTION_DOT": 5.98e-06, "MEAN_MOTION_DDOT": 0}, "tle": {"line1": "1 34053U 93036JQ  25352.61925788  .00000598  00000+0  56791-3 0  9991", "line2": "2 34053  73.8435 232.6971 0422558  20.2779 341.4552 13.49170319827638"}}, "geometry": {"type": "Point", "coordinates": [-138.98587914551155, -33.58226665794095]}}, {"type": "Feature", "properties": {"norad_id": 34056, "name": "COSMOS 2251 DEB", "group": "cosmos-2251-debris", "lat": -52.28417511880136, "lon": 43.522918340698055, "alt_km": 916.7615560314352, "timestamp": "2025-12-18T23:35:49.456739+00:00", "meta": {"OBJECT_NAME": "COSMOS 2251 DEB", "OBJECT_ID": "1993-036JT", "EPOCH": "2025-12-18T14:14:09.454272", "MEAN_MOTION": 14.2057663, "ECCENTRICITY": 0.01238514, "INCLINATION": 74.0587, "RA_OF_ASC_NODE": 65.9108, "ARG_OF_PERICENTER": 112.2108, "MEAN_ANOMALY": 358.8944, "EPHEMERIS_TYPE": 0, "CLASSIFICATION_TYPE": "U", "NORAD_CAT_ID": 34056, "ELEMENT_SET_NO": 999, "REV_AT_EPOCH": 86494, "BSTAR": 0.0005397463, "MEAN_MOTION_DOT": 1.23e-05, "MEAN_MOTION_DDOT": 0}, "tle": {"line1": "1 34056U 93036JT  25352.59316498  .00001230  00000+0  53975-3 0  9998", "line2": "2 34056  74.0587  65.9108 0123851 112.2108 358.8944 14.20576630864941"}}, "geometry": {"type": "Point", "coordinates": [43.522918340698055, -52.28417511880136]}}]}